[{"OBJECT_NAME":"GAOFEN-14 01","OBJECT_ID":"2020-092A","EPOCH":"2026-03-09T23:18:15.156000","MEAN_MOTION":15.25725011,"ECCENTRICITY":0.0008015,"INCLINATION":97.4817,"RA_OF_ASC_NODE":139.2507,"ARG_OF_PERICENTER":138.8844,"MEAN_ANOMALY":221.2999,"EPHEMERIS_TYPE":0,"CLASSIFICATION_TYPE":"U","NORAD_CAT_ID":47231,"ELEMENT_SET_NO":999,"REV_AT_EPOCH":29270,"BSTAR":0.00022250672,"MEAN_MOTION_DOT":5.605e-5,"MEAN_MOTION_DDOT":0},{"OBJECT_NAME":"STARLINK-36523","OBJECT_ID":"2026-008R","EPOCH":"2026-03-09T09:27:48.081600","MEAN_MOTION":15.27607881,"ECCENTRICITY":0.00024545,"INCLINATION":43.0011,"RA_OF_ASC_NODE":207.1838,"ARG_OF_PERICENTER":274.7498,"MEAN_ANOMALY":85.3073,"EPHEMERIS_TYPE":0,"CLASSIFICATION_TYPE":"U","NORAD_CAT_ID":67460,"ELEMENT_SET_NO":999,"REV_AT_EPOCH":952,"BSTAR":0.00094342193,"MEAN_MOTION_DOT":0.00025813,"MEAN_MOTION_DDOT":0}]
